{"fetched_at":"2026-03-29T16:36:15Z","count":15609,"tles":[{"name":"STARLINK-31363","line1":"1 59782U 24093A   26087.72820264  .00003199  00000+0  12573-3 0  9995","line2":"2 59782  42.9998  98.1725 0001254 275.3781  84.6928 15.27580050105647","category":"Starlink"}]}