{
  "norad_id": 59782,
  "name": "STARLINK-31363",
  "history": [
    {
      "epoch": "2026-03-28T17:28:36.708096",
      "apogee_km": 483.9093390393373,
      "perigee_km": 482.18855360399994,
      "latitude_deg": 16.116853264464194,
      "longitude_deg": -131.8925465599168,
      "semi_major_axis_km": 6861.185946321669,
      "eccentricity": 0.0001254,
      "inclination_deg": 42.9998,
      "raan_deg": 98.1725,
      "arg_perigee_deg": 275.3781,
      "mean_anomaly_deg": 84.6928,
      "mean_motion_rev_day": 15.2758005
    }
  ]
}